[{"OBJECT_NAME":"STARLINK-1404","OBJECT_ID":"2020-035AF","EPOCH":"2026-03-09T22:58:16.298976","MEAN_MOTION":15.3019821,"ECCENTRICITY":0.0001357,"INCLINATION":53.1608,"RA_OF_ASC_NODE":48.4571,"ARG_OF_PERICENTER":89.2984,"MEAN_ANOMALY":270.8172,"EPHEMERIS_TYPE":0,"CLASSIFICATION_TYPE":"U","NORAD_CAT_ID":45686,"ELEMENT_SET_NO":999,"REV_AT_EPOCH":31901,"BSTAR":3.7396603e-5,"MEAN_MOTION_DOT":7.48e-6,"MEAN_MOTION_DDOT":0},{"OBJECT_NAME":"OBJECT K","OBJECT_ID":"2024-092K","EPOCH":"2026-03-09T22:27:09.905184","MEAN_MOTION":15.32834875,"ECCENTRICITY":0.00087198,"INCLINATION":97.6413,"RA_OF_ASC_NODE":198.1023,"ARG_OF_PERICENTER":142.4952,"MEAN_ANOMALY":217.69,"EPHEMERIS_TYPE":0,"CLASSIFICATION_TYPE":"U","NORAD_CAT_ID":59809,"ELEMENT_SET_NO":999,"REV_AT_EPOCH":10001,"BSTAR":0.0007267688,"MEAN_MOTION_DOT":0.00023035,"MEAN_MOTION_DDOT":0}]
